{
  "type": "FeatureCollection",
  "features": [
    {
      "type": "Feature",
      "properties": {
        "norad_id": 24876,
        "name": "GPS BIIR-2  (PRN 13)",
        "group": "gps-ops",
        "lat": 55.62013725692303,
        "lon": -155.66304809563283,
        "alt_km": 19971.92417176092,
        "timestamp": "2025-12-08T08:59:01.024261+00:00",
        "meta_object_name": "GPS BIIR-2  (PRN 13)",
        "meta_object_id": "1997-035A",
        "meta_epoch": "2025-12-07T17:55:28.688448",
        "meta_mean_motion": 2.00563551,
        "meta_eccentricity": 0.00967233,
        "meta_inclination": 55.8929,
        "meta_ra_of_asc_node": 106.0642,
        "meta_arg_of_pericenter": 57.0121,
        "meta_mean_anomaly": 303.8828,
        "meta_ephemeris_type": 0,
        "meta_classification_type": "U",
        "meta_norad_cat_id": 24876,
        "meta_element_set_no": 999,
        "meta_rev_at_epoch": 20811,
        "meta_bstar": 0,
        "meta_mean_motion_dot": 1.2e-07,
        "meta_mean_motion_ddot": 0,
        "tle_line1": "1 24876U 97035A   25341.74685982  .00000012  00000+0  00000+0 0  9996",
        "tle_line2": "2 24876  55.8929 106.0642 0096723  57.0121 303.8828  2.00563551208110"
      },
      "geometry": {
        "type": "Point",
        "coordinates": [
          -155.66304809563283,
          55.62013725692303
        ]
      }
    },
    {
      "type": "Feature",
      "properties": {
        "norad_id": 26360,
        "name": "GPS BIIR-4  (PRN 20)",
        "group": "gps-ops",
        "lat": -4.470282458808229,
        "lon": -149.83486301658175,
        "alt_km": 20124.755664955257,
        "timestamp": "2025-12-08T08:59:01.024288+00:00",
        "meta_object_name": "GPS BIIR-4  (PRN 20)",
        "meta_object_id": "2000-025A",
        "meta_epoch": "2025-12-07T20:28:59.861568",
        "meta_mean_motion": 2.0056799,
        "meta_eccentricity": 0.0038838,
        "meta_inclination": 55.0423,
        "meta_ra_of_asc_node": 27.0356,
        "meta_arg_of_pericenter": 241.5268,
        "meta_mean_anomaly": 288.2176,
        "meta_ephemeris_type": 0,
        "meta_classification_type": "U",
        "meta_norad_cat_id": 26360,
        "meta_element_set_no": 999,
        "meta_rev_at_epoch": 18743,
        "meta_bstar": 0,
        "meta_mean_motion_dot": -8.5e-07,
        "meta_mean_motion_ddot": 0,
        "tle_line1": "1 26360U 00025A   25341.85347062 -.00000085  00000+0  00000+0 0  9996",
        "tle_line2": "2 26360  55.0423  27.0356 0038838 241.5268 288.2176  2.00567990187434"
      },
      "geometry": {
        "type": "Point",
        "coordinates": [
          -149.83486301658175,
          -4.470282458808229
        ]
      }
    },
    {
      "type": "Feature",
      "properties": {
        "norad_id": 26407,
        "name": "GPS BIIR-5  (PRN 22)",
        "group": "gps-ops",
        "lat": 21.624545011076556,
        "lon": -121.06718137852911,
        "alt_km": 20146.0053537812,
        "timestamp": "2025-12-08T08:59:01.024304+00:00",
        "meta_object_name": "GPS BIIR-5  (PRN 22)",
        "meta_object_id": "2000-040A",
        "meta_epoch": "2025-12-07T20:23:29.531904",
        "meta_mean_motion": 2.00567809,
        "meta_eccentricity": 0.01262773,
        "meta_inclination": 54.892,
        "meta_ra_of_asc_node": 222.7635,
        "meta_arg_of_pericenter": 301.7172,
        "meta_mean_anomaly": 64.8523,
        "meta_ephemeris_type": 0,
        "meta_classification_type": "U",
        "meta_norad_cat_id": 26407,
        "meta_element_set_no": 999,
        "meta_rev_at_epoch": 18611,
        "meta_bstar": 0,
        "meta_mean_motion_dot": 2.2e-07,
        "meta_mean_motion_ddot": 0,
        "tle_line1": "1 26407U 00040A   25341.84964736  .00000022  00000+0  00000+0 0  9997",
        "tle_line2": "2 26407  54.8920 222.7635 0126277 301.7172  64.8523  2.00567809186114"
      },
      "geometry": {
        "type": "Point",
        "coordinates": [
          -121.06718137852911,
          21.624545011076556
        ]
      }
    },
    {
      "type": "Feature",
      "properties": {
        "norad_id": 27663,
        "name": "GPS BIIR-8  (PRN 16)",
        "group": "gps-ops",
        "lat": 14.004087079912454,
        "lon": 32.476251906135666,
        "alt_km": 20315.600669150517,
        "timestamp": "2025-12-08T08:59:01.024318+00:00",
        "meta_object_name": "GPS BIIR-8  (PRN 16)",
        "meta_object_id": "2003-005A",
        "meta_epoch": "2025-12-07T16:01:06.566304",
        "meta_mean_motion": 2.00571101,
        "meta_eccentricity": 0.01472532,
        "meta_inclination": 54.9246,
        "meta_ra_of_asc_node": 222.5801,
        "meta_arg_of_pericenter": 51.7313,
        "meta_mean_anomaly": 319.0971,
        "meta_ephemeris_type": 0,
        "meta_classification_type": "U",
        "meta_norad_cat_id": 27663,
        "meta_element_set_no": 999,
        "meta_rev_at_epoch": 16747,
        "meta_bstar": 0,
        "meta_mean_motion_dot": 2.5e-07,
        "meta_mean_motion_ddot": 0,
        "tle_line1": "1 27663U 03005A   25341.66743711  .00000025  00000+0  00000+0 0  9997",
        "tle_line2": "2 27663  54.9246 222.5801 0147253  51.7313 319.0971  2.00571101167470"
      },
      "geometry": {
        "type": "Point",
        "coordinates": [
          32.476251906135666,
          14.004087079912454
        ]
      }
    },
    {
      "type": "Feature",
      "properties": {
        "norad_id": 28190,
        "name": "GPS BIIR-11 (PRN 19)",
        "group": "gps-ops",
        "lat": -31.245742386265036,
        "lon": -101.75526936861138,
        "alt_km": 20442.77556923603,
        "timestamp": "2025-12-08T08:59:01.024330+00:00",
        "meta_object_name": "GPS BIIR-11 (PRN 19)",
        "meta_object_id": "2004-009A",
        "meta_epoch": "2025-12-07T01:08:17.943360",
        "meta_mean_motion": 2.00560868,
        "meta_eccentricity": 0.01082706,
        "meta_inclination": 54.9909,
        "meta_ra_of_asc_node": 283.4484,
        "meta_arg_of_pericenter": 167.5454,
        "meta_mean_anomaly": 274.5396,
        "meta_ephemeris_type": 0,
        "meta_classification_type": "U",
        "meta_norad_cat_id": 28190,
        "meta_element_set_no": 999,
        "meta_rev_at_epoch": 15909,
        "meta_bstar": 0,
        "meta_mean_motion_dot": -4.1e-07,
        "meta_mean_motion_ddot": 0,
        "tle_line1": "1 28190U 04009A   25341.04742990 -.00000041  00000+0  00000+0 0  9997",
        "tle_line2": "2 28190  54.9909 283.4484 0108270 167.5454 274.5396  2.00560868159096"
      },
      "geometry": {
        "type": "Point",
        "coordinates": [
          -101.75526936861138,
          -31.245742386265036
        ]
      }
    },
    {
      "type": "Feature",
      "properties": {
        "norad_id": 28474,
        "name": "GPS BIIR-13 (PRN 02)",
        "group": "gps-ops",
        "lat": 17.92108076391702,
        "lon": -14.453978387059271,
        "alt_km": 20040.495638066757,
        "timestamp": "2025-12-08T08:59:01.024343+00:00",
        "meta_object_name": "GPS BIIR-13 (PRN 02)",
        "meta_object_id": "2004-045A",
        "meta_epoch": "2025-12-07T20:16:35.351904",
        "meta_mean_motion": 2.00569143,
        "meta_eccentricity": 0.0170668,
        "meta_inclination": 55.2431,
        "meta_ra_of_asc_node": 332.6027,
        "meta_arg_of_pericenter": 309.0357,
        "meta_mean_anomaly": 48.7901,
        "meta_ephemeris_type": 0,
        "meta_classification_type": "U",
        "meta_norad_cat_id": 28474,
        "meta_element_set_no": 999,
        "meta_rev_at_epoch": 15458,
        "meta_bstar": 0,
        "meta_mean_motion_dot": -8.2e-07,
        "meta_mean_motion_ddot": 0,
        "tle_line1": "1 28474U 04045A   25341.84485361 -.00000082  00000+0  00000+0 0  9991",
        "tle_line2": "2 28474  55.2431 332.6027 0170668 309.0357  48.7901  2.00569143154587"
      },
      "geometry": {
        "type": "Point",
        "coordinates": [
          -14.453978387059271,
          17.92108076391702
        ]
      }
    },
    {
      "type": "Feature",
      "properties": {
        "norad_id": 28874,
        "name": "GPS BIIRM-1 (PRN 17)",
        "group": "gps-ops",
        "lat": -16.324081297418097,
        "lon": -90.94948781476083,
        "alt_km": 19939.745802750265,
        "timestamp": "2025-12-08T08:59:01.024355+00:00",
        "meta_object_name": "GPS BIIRM-1 (PRN 17)",
        "meta_object_id": "2005-038A",
        "meta_epoch": "2025-12-07T21:56:50.807616",
        "meta_mean_motion": 2.00578604,
        "meta_eccentricity": 0.01317949,
        "meta_inclination": 55.0363,
        "meta_ra_of_asc_node": 280.8951,
        "meta_arg_of_pericenter": 293.3685,
        "meta_mean_anomaly": 73.445,
        "meta_ephemeris_type": 0,
        "meta_classification_type": "U",
        "meta_norad_cat_id": 28874,
        "meta_element_set_no": 999,
        "meta_rev_at_epoch": 14800,
        "meta_bstar": 0,
        "meta_mean_motion_dot": -4.2e-07,
        "meta_mean_motion_ddot": 0,
        "tle_line1": "1 28874U 05038A   25341.91447694 -.00000042  00000+0  00000+0 0  9999",
        "tle_line2": "2 28874  55.0363 280.8951 0131794 293.3685  73.4450  2.00578604148005"
      },
      "geometry": {
        "type": "Point",
        "coordinates": [
          -90.94948781476083,
          -16.324081297418097
        ]
      }
    }
  ]
}